GLOBALSTAR M024 [-]     
1 25883U 99043A   24084.88459375  .00000037  00000+0  36129-2 0  9990
2 25883  52.0041 314.3988 0002310  84.9320 288.4723 11.10159715 64968
GLOBALSTAR M027 [-]     
1 25884U 99043B   24084.19592314 -.00000101  00000+0 -14128-2 0  9995
2 25884  52.0253  21.1822 0021458 346.0777  13.9422 11.04367237 91528
GLOBALSTAR M054 [-]     
1 25885U 99043C   24084.81607499 -.00000131  00000+0 -15357-2 0  9994
2 25885  52.0124 222.5113 0005420 122.2874  26.1736 11.39205588 67838
GLOBALSTAR M053 [-]     
1 25886U 99043D   24084.95032240 -.00000022  00000+0  13644-2 0  9991
2 25886  51.9963 144.3639 0003179  46.8576 124.9842 11.27654151 68760
GLOBALSTAR M058 [-]     
1 25907U 99049A   24084.70861694 -.00000098  00000+0 -18433-3 0  9993
2 25907  51.9927 229.3758 0003059 126.8400 233.2716 11.93178966487882
GLOBALSTAR M050 [-]     
1 25908U 99049B   24084.71474639 -.00000146  00000+0 -65408-3 0  9992
2 25908  51.9974 270.6165 0008669 210.8399 231.5788 12.07430504 93898
GLOBALSTAR M033 [-]     
1 25909U 99049C   24084.90959757 -.00000085  00000+0  68923-4 0  9990
2 25909  51.9901 172.9472 0011930  69.3330 290.8795 12.20269849480894
GLOBALSTAR M055 [-]     
1 25910U 99049D   24084.49725219 -.00000068  00000+0  21996-3 0  9999
2 25910  52.0009 206.7362 0006288 275.7347  84.2788 12.29397655112976
